[{"OBJECT_NAME":"HORS 2","OBJECT_ID":"2023-091AG","EPOCH":"2026-03-09T22:11:34.810944","MEAN_MOTION":15.2928008,"ECCENTRICITY":0.00098173,"INCLINATION":97.5195,"RA_OF_ASC_NODE":134.7443,"ARG_OF_PERICENTER":79.3164,"MEAN_ANOMALY":280.9181,"EPHEMERIS_TYPE":0,"CLASSIFICATION_TYPE":"U","NORAD_CAT_ID":57196,"ELEMENT_SET_NO":999,"REV_AT_EPOCH":14934,"BSTAR":0.00059338338,"MEAN_MOTION_DOT":0.00016821,"MEAN_MOTION_DDOT":0},{"OBJECT_NAME":"STARLINK-35478","OBJECT_ID":"2025-225H","EPOCH":"2026-03-09T12:55:50.648160","MEAN_MOTION":15.3018961,"ECCENTRICITY":0.0001108,"INCLINATION":53.1592,"RA_OF_ASC_NODE":166.4758,"ARG_OF_PERICENTER":90.53,"MEAN_ANOMALY":269.5828,"EPHEMERIS_TYPE":0,"CLASSIFICATION_TYPE":"U","NORAD_CAT_ID":65917,"ELEMENT_SET_NO":999,"REV_AT_EPOCH":2438,"BSTAR":0.00051504225,"MEAN_MOTION_DOT":0.00014921,"MEAN_MOTION_DDOT":0}]
